[{"OBJECT_NAME":"KUIPER-00268","OBJECT_ID":"2026-030AC","EPOCH":"2026-03-06T23:01:01.685856","MEAN_MOTION":15.35889677,"ECCENTRICITY":0.0002672,"INCLINATION":51.8842,"RA_OF_ASC_NODE":232.2762,"ARG_OF_PERICENTER":38.221,"MEAN_ANOMALY":321.8965,"EPHEMERIS_TYPE":0,"CLASSIFICATION_TYPE":"U","NORAD_CAT_ID":67790,"ELEMENT_SET_NO":999,"REV_AT_EPOCH":467,"BSTAR":0.00091093,"MEAN_MOTION_DOT":0.00032063,"MEAN_MOTION_DDOT":0},{"OBJECT_NAME":"KUIPER-00270","OBJECT_ID":"2026-030AD","EPOCH":"2026-03-06T23:30:14.408352","MEAN_MOTION":15.34539352,"ECCENTRICITY":0.0010521,"INCLINATION":51.8816,"RA_OF_ASC_NODE":232.3958,"ARG_OF_PERICENTER":48.4445,"MEAN_ANOMALY":311.7441,"EPHEMERIS_TYPE":0,"CLASSIFICATION_TYPE":"U","NORAD_CAT_ID":67791,"ELEMENT_SET_NO":999,"REV_AT_EPOCH":467,"BSTAR":0.00098398,"MEAN_MOTION_DOT":0.00033245,"MEAN_MOTION_DDOT":0},{"OBJECT_NAME":"KUIPER-00274","OBJECT_ID":"2026-030AE","EPOCH":"2026-03-06T22:39:09.743328","MEAN_MOTION":15.30843054,"ECCENTRICITY":0.0018444,"INCLINATION":51.8821,"RA_OF_ASC_NODE":232.9052,"ARG_OF_PERICENTER":62.7641,"MEAN_ANOMALY":297.522,"EPHEMERIS_TYPE":0,"CLASSIFICATION_TYPE":"U","NORAD_CAT_ID":67792,"ELEMENT_SET_NO":999,"REV_AT_EPOCH":466,"BSTAR":-0.00072852,"MEAN_MOTION_DOT":-0.0002246,"MEAN_MOTION_DDOT":0},{"OBJECT_NAME":"KUIPER-00275","OBJECT_ID":"2026-030AF","EPOCH":"2026-03-07T04:07:41.430720","MEAN_MOTION":15.34625009,"ECCENTRICITY":0.00092,"INCLINATION":51.885,"RA_OF_ASC_NODE":231.4487,"ARG_OF_PERICENTER":46.652,"MEAN_ANOMALY":313.5231,"EPHEMERIS_TYPE":0,"CLASSIFICATION_TYPE":"U","NORAD_CAT_ID":67793,"ELEMENT_SET_NO":999,"REV_AT_EPOCH":470,"BSTAR":0.00096475,"MEAN_MOTION_DOT":0.00032662,"MEAN_MOTION_DDOT":0},{"OBJECT_NAME":"KUIPER-00276","OBJECT_ID":"2026-030AG","EPOCH":"2026-03-07T00:18:43.894656","MEAN_MOTION":15.30670609,"ECCENTRICITY":0.0019243,"INCLINATION":51.8812,"RA_OF_ASC_NODE":232.6161,"ARG_OF_PERICENTER":59.1102,"MEAN_ANOMALY":301.1771,"EPHEMERIS_TYPE":0,"CLASSIFICATION_TYPE":"U","NORAD_CAT_ID":67794,"ELEMENT_SET_NO":999,"REV_AT_EPOCH":467,"BSTAR":-0.0021428,"MEAN_MOTION_DOT":-0.00064665,"MEAN_MOTION_DDOT":0},{"OBJECT_NAME":"KUIPER-00279","OBJECT_ID":"2026-030AH","EPOCH":"2026-03-06T23:15:36.732960","MEAN_MOTION":15.35281783,"ECCENTRICITY":0.0006544,"INCLINATION":51.8802,"RA_OF_ASC_NODE":232.3302,"ARG_OF_PERICENTER":40.3879,"MEAN_ANOMALY":319.7591,"EPHEMERIS_TYPE":0,"CLASSIFICATION_TYPE":"U","NORAD_CAT_ID":67795,"ELEMENT_SET_NO":999,"REV_AT_EPOCH":467,"BSTAR":0.00069096,"MEAN_MOTION_DOT":0.0002374,"MEAN_MOTION_DDOT":0}]
