KUIPER-00268            
1 67790U 26030AC  26065.95904729  .00032063  00000+0  91093-3 0  9992
2 67790  51.8842 232.2762 0002672  38.2210 321.8965 15.35889677  4676
KUIPER-00270            
1 67791U 26030AD  26065.97933343  .00033245  00000+0  98398-3 0  9997
2 67791  51.8816 232.3958 0010521  48.4445 311.7441 15.34539352  4679
KUIPER-00274            
1 67792U 26030AE  26065.94386277 -.00022460  00000+0 -72852-3 0  9999
2 67792  51.8821 232.9052 0018444  62.7641 297.5220 15.30843054  4664
KUIPER-00275            
1 67793U 26030AF  26066.17200730  .00032662  00000+0  96475-3 0  9995
2 67793  51.8850 231.4487 0009200  46.6520 313.5231 15.34625009  4708
KUIPER-00276            
1 67794U 26030AG  26066.01300804 -.00064665  00000+0 -21428-2 0  9997
2 67794  51.8812 232.6161 0019243  59.1102 301.1771 15.30670609  4672
KUIPER-00279            
1 67795U 26030AH  26065.96917515  .00023740  00000+0  69096-3 0  9995
2 67795  51.8802 232.3302 0006544  40.3879 319.7591 15.35281783  4670
